ACS3                    
1 59588U 24077B   24215.92118497  .00000050  00000+0  92911-4 0  9990
2 59588  97.4036 273.2418 0019326 330.1496  29.8551 13.67694495 13794
